OBJECT_NAME,OBJECT_ID,EPOCH,MEAN_MOTION,ECCENTRICITY,INCLINATION,RA_OF_ASC_NODE,ARG_OF_PERICENTER,MEAN_ANOMALY,EPHEMERIS_TYPE,CLASSIFICATION_TYPE,NORAD_CAT_ID,ELEMENT_SET_NO,REV_AT_EPOCH,BSTAR,MEAN_MOTION_DOT,MEAN_MOTION_DDOT
IRIDIUM 156,2018-061H,2024-01-20T14:12:49.925664,14.34215907,.000194,86.3940,63.9118,89.2639,270.8779,0,U,43576,999,28744,.14367E-3,.422E-5,0
IRIDIUM 164,2018-061J,2024-01-20T13:45:25.845984,14.34216260,.0002085,86.3942,63.9456,95.6817,264.4617,0,U,43577,999,28748,.1433E-3,.421E-5,0
IRIDIUM 159,2018-061K,2024-01-20T14:40:14.242080,14.34219474,.0002327,86.3937,63.8854,93.9371,266.2091,0,U,43578,999,28745,.16403E-3,.479E-5,0
IRIDIUM 180,2019-002A,2024-01-20T11:18:33.071904,14.34225964,.0002256,86.3982,0.8219,91.9851,268.1604,0,U,43922,999,26304,.19523E-3,.567E-5,0
IRIDIUM 176,2019-002B,2024-01-20T11:20:21.060672,14.72288876,.0002583,86.6112,0.8511,89.3008,270.8505,0,U,43923,999,26996,.31531E-3,.2015E-4,0
IRIDIUM 168,2019-002C,2024-01-20T11:09:26.057952,14.34214905,.0002096,86.3984,0.8771,86.8766,273.2669,0,U,43924,999,26302,.17249E-3,.503E-5,0
IRIDIUM 173,2019-002D,2024-01-20T10:51:10.770336,14.34217190,.0002306,86.3981,0.8074,87.8396,272.3064,0,U,43925,999,26300,.19289E-3,.56E-5,0
IRIDIUM 169,2019-002E,2024-01-20T13:17:59.101728,14.38612304,.0003476,86.4210,32.3679,39.5478,320.5973,0,U,43926,999,26390,.104E-3,.338E-5,0
IRIDIUM 172,2019-002F,2024-01-20T10:42:02.655648,14.34216959,.0002192,86.3980,0.8155,89.2574,270.8873,0,U,43927,999,26301,.19507E-3,.566E-5,0
IRIDIUM 175,2019-002G,2024-01-20T09:33:53.366112,14.72212265,.0002451,86.1531,342.4447,86.7915,273.3582,0,U,43928,999,26994,.32739E-3,.2088E-4,0
IRIDIUM 171,2019-002H,2024-01-20T10:14:38.872320,14.34217134,.0002102,86.3991,1.0322,90.1476,269.9961,0,U,43929,999,26300,.19281E-3,.56E-5,0
IRIDIUM 170,2019-002J,2024-01-20T11:29:17.231424,14.72217849,.0002521,86.6112,0.8532,91.8418,268.3087,0,U,43930,999,26997,.70191E-4,.467E-5,0
IRIDIUM 167,2019-002K,2024-01-20T11:45:58.764672,14.34217237,.0002086,86.3983,0.8113,88.8390,271.3044,0,U,43931,999,26301,.17318E-4,.68E-6,0
IRIDIUM 181,2023-068S,2024-01-20T13:28:50.818656,14.43590102,.000157,86.8604,47.2899,100.0062,260.1317,0,U,56726,999,3569,.188E-3,.656E-5,0
IRIDIUM 177,2023-068T,2024-01-20T12:02:23.042976,14.80210551,.0002426,86.1965,25.9353,93.8502,266.2996,0,U,56727,999,3638,.14198E-3,.1105E-4,0
IRIDIUM 174,2023-068U,2024-01-20T11:54:35.845344,14.80202744,.0002471,86.1974,26.0290,95.7167,264.4335,0,U,56728,999,3638,.56542E-4,.456E-5,0
IRIDIUM 178,2023-068V,2024-01-20T13:24:04.173696,14.80193604,.0002432,86.5762,36.4165,95.9196,264.2302,0,U,56729,999,3639,.9656E-4,.759E-5,0
IRIDIUM 179,2023-068W,2024-01-20T11:38:51.846720,14.80272173,.0002512,86.6771,38.7083,96.3668,263.7840,0,U,56730,999,3638,.22094E-3,.1706E-4,0
