0 IRIDIUM 156
1 43576U 18061H   24020.59224451  .00000422  00000-0  14367-3 0  9993
2 43576  86.3940  63.9118 0001940  89.2639 270.8779 14.34215907287447
0 IRIDIUM 164
1 43577U 18061J   24020.57321581  .00000421  00000-0  14330-3 0  9993
2 43577  86.3942  63.9456 0002085  95.6817 264.4617 14.34216260287482
0 IRIDIUM 159
1 43578U 18061K   24020.61127595  .00000479  00000-0  16403-3 0  9994
2 43578  86.3937  63.8854 0002327  93.9371 266.2091 14.34219474287456
0 IRIDIUM 180
1 43922U 19002A   24020.47121611  .00000567  00000-0  19523-3 0  9994
2 43922  86.3982   0.8219 0002256  91.9851 268.1604 14.34225964263048
0 IRIDIUM 176
1 43923U 19002B   24020.47246598  .00002015  00000-0  31531-3 0  9990
2 43923  86.6112   0.8511 0002583  89.3008 270.8505 14.72288876269960
0 IRIDIUM 168
1 43924U 19002C   24020.46488493  .00000503  00000-0  17249-3 0  9992
2 43924  86.3984   0.8771 0002096  86.8766 273.2669 14.34214905263024
0 IRIDIUM 173
1 43925U 19002D   24020.45220799  .00000560  00000-0  19289-3 0  9994
2 43925  86.3981   0.8074 0002306  87.8396 272.3064 14.34217190263008
0 IRIDIUM 169
1 43926U 19002E   24020.55415627  .00000338  00000-0  10400-3 0  9991
2 43926  86.4210  32.3679 0003476  39.5478 320.5973 14.38612304263904
0 IRIDIUM 172
1 43927U 19002F   24020.44586407  .00000566  00000-0  19507-3 0  9995
2 43927  86.3980   0.8155 0002192  89.2574 270.8873 14.34216959263010
0 IRIDIUM 175
1 43928U 19002G   24020.39853433  .00002088  00000-0  32739-3 0  9999
2 43928  86.1531 342.4447 0002451  86.7915 273.3582 14.72212265269940
0 IRIDIUM 171
1 43929U 19002H   24020.42683880  .00000560  00000-0  19281-3 0  9991
2 43929  86.3991   1.0322 0002102  90.1476 269.9961 14.34217134263008
0 IRIDIUM 170
1 43930U 19002J   24020.47867166  .00000467  00000-0  70191-4 0  9993
2 43930  86.6112   0.8532 0002521  91.8418 268.3087 14.72217849269976
0 IRIDIUM 167
1 43931U 19002K   24020.49026348  .00000068  00000-0  17318-4 0  9994
2 43931  86.3983   0.8113 0002086  88.8390 271.3044 14.34217237263011
0 IRIDIUM 181
1 56726U 23068S   24020.56169929  .00000656  00000-0  18800-3 0  9997
2 56726  86.8604  47.2899 0001570 100.0062 260.1317 14.43590102 35693
0 IRIDIUM 177
1 56727U 23068T   24020.50165559  .00001105  00000-0  14198-3 0  9993
2 56727  86.1965  25.9353 0002426  93.8502 266.2996 14.80210551 36389
0 IRIDIUM 174
1 56728U 23068U   24020.49624821  .00000456  00000-0  56542-4 0  9992
2 56728  86.1974  26.0290 0002471  95.7167 264.4335 14.80202744 36382
0 IRIDIUM 178
1 56729U 23068V   24020.55838164  .00000759  00000-0  96560-4 0  9997
2 56729  86.5762  36.4165 0002432  95.9196 264.2302 14.80193604 36396
0 IRIDIUM 179
1 56730U 23068W   24020.48532230  .00001706  00000-0  22094-3 0  9999
2 56730  86.6771  38.7083 0002512  96.3668 263.7840 14.80272173 36380
